{
  "norad_id": 43576,
  "name": "IRIDIUM 156",
  "history": [
    {
      "epoch": "2026-03-28T17:51:30.445632Z",
      "apogee_km": 779.174340936268,
      "perigee_km": 776.1624624426968,
      "latitude_deg": 2.294043189872813e-05,
      "longitude_deg": -3.663511999070128,
      "height_km": 780.8636643025393,
      "semi_major_axis_km": 7155.805401689482,
      "eccentricity": 0.00021045,
      "inclination_deg": 86.3907,
      "raan_deg": 90.3735,
      "arg_perigee_deg": 95.6333,
      "mean_anomaly_deg": 264.5103,
      "mean_motion_rev_day": 14.34217375
    },
    {
      "epoch": "2026-03-29T05:34:46.449120Z",
      "apogee_km": 779.167792440664,
      "perigee_km": 776.1695098728296,
      "latitude_deg": 2.827008407465169e-05,
      "longitude_deg": 179.83403818528834,
      "height_km": 780.8612797587841,
      "semi_major_axis_km": 7155.8056511567465,
      "eccentricity": 0.0002095,
      "inclination_deg": 86.3907,
      "raan_deg": 90.1691,
      "arg_perigee_deg": 95.5572,
      "mean_anomaly_deg": 264.5863,
      "mean_motion_rev_day": 14.342173
    },
    {
      "epoch": "2026-03-30T01:40:22.423872Z",
      "apogee_km": 779.1754345591489,
      "perigee_km": 776.1599784558257,
      "latitude_deg": -1.1294882598755881e-05,
      "longitude_deg": -122.74166221615778,
      "height_km": 780.8595208147248,
      "semi_major_axis_km": 7155.804706507487,
      "eccentricity": 0.0002107,
      "inclination_deg": 86.3908,
      "raan_deg": 89.8185,
      "arg_perigee_deg": 95.4949,
      "mean_anomaly_deg": 264.6487,
      "mean_motion_rev_day": 14.34217584
    },
    {
      "epoch": "2026-03-30T06:41:46.422528Z",
      "apogee_km": 779.174386169474,
      "perigee_km": 776.1609337110804,
      "latitude_deg": 3.7435969542361843e-06,
      "longitude_deg": 161.61444361517297,
      "height_km": 780.8587054138853,
      "semi_major_axis_km": 7155.804659940277,
      "eccentricity": 0.00021056,
      "inclination_deg": 86.3908,
      "raan_deg": 89.7309,
      "arg_perigee_deg": 95.4692,
      "mean_anomaly_deg": 264.6744,
      "mean_motion_rev_day": 14.34217598
    },
    {
      "epoch": "2026-03-30T13:23:38.446368Z",
      "apogee_km": 779.2624459864983,
      "perigee_km": 776.0721022089356,
      "latitude_deg": -1.815269731246297e-05,
      "longitude_deg": 60.7556083326492,
      "height_km": 780.8585669694477,
      "semi_major_axis_km": 7155.804274097717,
      "eccentricity": 0.00022292,
      "inclination_deg": 86.3905,
      "raan_deg": 89.6139,
      "arg_perigee_deg": 95.1821,
      "mean_anomaly_deg": 264.9629,
      "mean_motion_rev_day": 14.34217714
    },
    {
      "epoch": "2026-03-30T21:45:58.433184Z",
      "apogee_km": 779.2632632931136,
      "perigee_km": 776.0702005518542,
      "latitude_deg": -4.9562085245128804e-05,
      "longitude_deg": -65.31740643351213,
      "height_km": 780.8512697363781,
      "semi_major_axis_km": 7155.803731922483,
      "eccentricity": 0.00022311,
      "inclination_deg": 86.3906,
      "raan_deg": 89.468,
      "arg_perigee_deg": 94.9343,
      "mean_anomaly_deg": 265.2107,
      "mean_motion_rev_day": 14.34217877
    },
    {
      "epoch": "2026-03-31T17:51:34.379424Z",
      "apogee_km": 779.2682412839795,
      "perigee_km": 776.0624418349607,
      "latitude_deg": -5.22993927364173e-05,
      "longitude_deg": -7.8929847173603545,
      "height_km": 780.8496035695299,
      "semi_major_axis_km": 7155.80234155947,
      "eccentricity": 0.000224,
      "inclination_deg": 86.3906,
      "raan_deg": 89.1174,
      "arg_perigee_deg": 94.9053,
      "mean_anomaly_deg": 265.2398,
      "mean_motion_rev_day": 14.34218295
    },
    {
      "epoch": "2026-04-01T10:36:14.334048Z",
      "apogee_km": 779.2783162462083,
      "perigee_km": 776.0510496871912,
      "latitude_deg": -2.0222313778010225e-05,
      "longitude_deg": 99.96077121880813,
      "height_km": 780.8522073396095,
      "semi_major_axis_km": 7155.801682966699,
      "eccentricity": 0.0002255,
      "inclination_deg": 86.3905,
      "raan_deg": 88.8253,
      "arg_perigee_deg": 94.99,
      "mean_anomaly_deg": 265.1553,
      "mean_motion_rev_day": 14.34218493
    },
    {
      "epoch": "2026-04-02T10:02:46.245120Z",
      "apogee_km": 779.2837636726144,
      "perigee_km": 776.0420432003602,
      "latitude_deg": -3.976029819491376e-05,
      "longitude_deg": 106.95617133073598,
      "height_km": 780.8480306441397,
      "semi_major_axis_km": 7155.799903436487,
      "eccentricity": 0.00022651,
      "inclination_deg": 86.3907,
      "raan_deg": 88.4164,
      "arg_perigee_deg": 94.8831,
      "mean_anomaly_deg": 265.2623,
      "mean_motion_rev_day": 14.34219028
    },
    {
      "epoch": "2026-04-03T11:09:46.180512Z",
      "apogee_km": 779.2753282303911,
      "perigee_km": 776.0500661908645,
      "latitude_deg": 7.660558738043683e-05,
      "longitude_deg": 88.73684409272066,
      "height_km": 780.8350531376718,
      "semi_major_axis_km": 7155.7996972106275,
      "eccentricity": 0.00022536,
      "inclination_deg": 86.3907,
      "raan_deg": 87.9783,
      "arg_perigee_deg": 94.4529,
      "mean_anomaly_deg": 265.6925,
      "mean_motion_rev_day": 14.3421909
    },
    {
      "epoch": "2026-04-04T00:33:30.128832Z",
      "apogee_km": 779.2798997649197,
      "perigee_km": 776.0447628872271,
      "latitude_deg": -5.258510681048199e-06,
      "longitude_deg": -112.9801144347716,
      "height_km": 780.8328551026204,
      "semi_major_axis_km": 7155.799331326073,
      "eccentricity": 0.00022605,
      "inclination_deg": 86.3907,
      "raan_deg": 87.7446,
      "arg_perigee_deg": 94.3742,
      "mean_anomaly_deg": 265.7712,
      "mean_motion_rev_day": 14.342192
    },
    {
      "epoch": "2026-04-05T11:43:18.247296Z",
      "apogee_km": 779.2981797874818,
      "perigee_km": 776.0378519061624,
      "latitude_deg": 7.322004883721225e-05,
      "longitude_deg": 77.51208694841806,
      "height_km": 780.820587238921,
      "semi_major_axis_km": 7155.805015846822,
      "eccentricity": 0.00022781,
      "inclination_deg": 86.3909,
      "raan_deg": 87.1314,
      "arg_perigee_deg": 93.7096,
      "mean_anomaly_deg": 266.4361,
      "mean_motion_rev_day": 14.34217491
    },
    {
      "epoch": "2026-04-05T21:46:06.255840Z",
      "apogee_km": 779.3109421005538,
      "perigee_km": 776.024996458661,
      "latitude_deg": 6.792213141673072e-05,
      "longitude_deg": -73.77575177002934,
      "height_km": 780.8207797220806,
      "semi_major_axis_km": 7155.804969279608,
      "eccentricity": 0.0002296,
      "inclination_deg": 86.3909,
      "raan_deg": 86.9562,
      "arg_perigee_deg": 93.6901,
      "mean_anomaly_deg": 266.4558,
      "mean_motion_rev_day": 14.34217505
    },
    {
      "epoch": "2026-04-07T12:16:50.309760Z",
      "apogee_km": 779.2472948499999,
      "perigee_km": 776.0912980410149,
      "latitude_deg": -2.5748216862822373e-06,
      "longitude_deg": 66.2874402783135,
      "height_km": 780.8091123346285,
      "semi_major_axis_km": 7155.806296445507,
      "eccentricity": 0.00022052,
      "inclination_deg": 86.3913,
      "raan_deg": 86.2846,
      "arg_perigee_deg": 93.3631,
      "mean_anomaly_deg": 266.7817,
      "mean_motion_rev_day": 14.34217106
    },
    {
      "epoch": "2026-04-07T17:18:14.317056Z",
      "apogee_km": 779.2528863598127,
      "perigee_km": 776.085726488589,
      "latitude_deg": 6.761641491283041e-06,
      "longitude_deg": -9.356491202354771,
      "height_km": 780.8078140416569,
      "semi_major_axis_km": 7155.806306424201,
      "eccentricity": 0.0002213,
      "inclination_deg": 86.3913,
      "raan_deg": 86.197,
      "arg_perigee_deg": 93.3044,
      "mean_anomaly_deg": 266.8405,
      "mean_motion_rev_day": 14.34217103
    },
    {
      "epoch": "2026-04-08T11:43:22.348704Z",
      "apogee_km": 779.3519046660431,
      "perigee_km": 775.9853843425299,
      "latitude_deg": 5.188609925513818e-06,
      "longitude_deg": 73.28230392368864,
      "height_km": 780.8035293733697,
      "semi_major_axis_km": 7155.805644504287,
      "eccentricity": 0.00023523,
      "inclination_deg": 86.3913,
      "raan_deg": 85.8757,
      "arg_perigee_deg": 92.9937,
      "mean_anomaly_deg": 267.1528,
      "mean_motion_rev_day": 14.34217302
    },
    {
      "epoch": "2026-04-09T21:12:42.359040Z",
      "apogee_km": 779.3516237244912,
      "perigee_km": 775.9841019560381,
      "latitude_deg": -1.612727103459698e-05,
      "longitude_deg": -71.01051787792672,
      "height_km": 780.784458696463,
      "semi_major_axis_km": 7155.804862840265,
      "eccentricity": 0.0002353,
      "inclination_deg": 86.3913,
      "raan_deg": 85.2916,
      "arg_perigee_deg": 92.3699,
      "mean_anomaly_deg": 267.7766,
      "mean_motion_rev_day": 14.34217537
    },
    {
      "epoch": "2026-04-10T12:16:54.378336Z",
      "apogee_km": 779.3575978944982,
      "perigee_km": 775.9786267204663,
      "latitude_deg": -1.0024643045510457e-05,
      "longitude_deg": 62.05769741780156,
      "height_km": 780.7812023261729,
      "semi_major_axis_km": 7155.805112307482,
      "eccentricity": 0.0002361,
      "inclination_deg": 86.3914,
      "raan_deg": 85.0288,
      "arg_perigee_deg": 92.2434,
      "mean_anomaly_deg": 267.9032,
      "mean_motion_rev_day": 14.34217462
    },
    {
      "epoch": "2026-04-11T16:44:50.402976Z",
      "apogee_km": 779.3612922426419,
      "perigee_km": 775.9751652084087,
      "latitude_deg": 2.7238999741465386e-05,
      "longitude_deg": -6.591177603268473,
      "height_km": 780.7712245036914,
      "semi_major_axis_km": 7155.805228725525,
      "eccentricity": 0.0002366,
      "inclination_deg": 86.3915,
      "raan_deg": 84.5324,
      "arg_perigee_deg": 91.8974,
      "mean_anomaly_deg": 268.2493,
      "mean_motion_rev_day": 14.34217427
    }
  ]
}